{
  "norad_id": 53031,
  "name": "STARLINK-4137",
  "history": [
    {
      "epoch": "2026-03-28T21:31:55.807680Z",
      "apogee_km": 540.8157668040012,
      "perigee_km": 538.6950177122308,
      "latitude_deg": 1.951496235687221e-05,
      "longitude_deg": -161.39604816793562,
      "height_km": 540.6826087353148,
      "semi_major_axis_km": 6917.892392258116,
      "eccentricity": 0.00015328,
      "inclination_deg": 53.2213,
      "raan_deg": 347.8975,
      "arg_perigee_deg": 91.6937,
      "mean_anomaly_deg": 268.4231,
      "mean_motion_rev_day": 15.08836073
    },
    {
      "epoch": "2026-03-29T02:18:05.145696Z",
      "apogee_km": 540.7196998787467,
      "perigee_km": 538.7826911839975,
      "latitude_deg": -6.493313294361539e-07,
      "longitude_deg": 125.97586187883769,
      "height_km": 540.5667704049417,
      "semi_major_axis_km": 6917.888195531372,
      "eccentricity": 0.00014,
      "inclination_deg": 53.2191,
      "raan_deg": 347.0042,
      "arg_perigee_deg": 85.2462,
      "mean_anomaly_deg": 274.869,
      "mean_motion_rev_day": 15.08837446
    },
    {
      "epoch": "2026-03-30T00:33:30.081312Z",
      "apogee_km": 540.6467878281956,
      "perigee_km": 538.8536714582724,
      "latitude_deg": 3.0423007143734733e-06,
      "longitude_deg": 147.04390721560856,
      "height_km": 540.5605892856794,
      "semi_major_axis_km": 6917.887229643234,
      "eccentricity": 0.0001296,
      "inclination_deg": 53.2191,
      "raan_deg": 342.8402,
      "arg_perigee_deg": 84.5197,
      "mean_anomaly_deg": 275.5943,
      "mean_motion_rev_day": 15.08837762
    },
    {
      "epoch": "2026-03-30T00:33:30.082176Z",
      "apogee_km": 540.6469261859411,
      "perigee_km": 538.8535331005269,
      "latitude_deg": 1.2041736388024446e-06,
      "longitude_deg": 147.0439022391483,
      "height_km": 540.560576072244,
      "semi_major_axis_km": 6917.887229643234,
      "eccentricity": 0.00012962,
      "inclination_deg": 53.2191,
      "raan_deg": 342.8402,
      "arg_perigee_deg": 84.5197,
      "mean_anomaly_deg": 275.5943,
      "mean_motion_rev_day": 15.08837762
    }
  ]
}